ONEWEB-0168             
1 48068U 21025AC  24071.54869866 -.00000195  00000+0 -56788-3 0  9995
2 48068  87.8949 124.9612 0002032 102.6886 257.4471 13.13470270144913
ONEWEB-0173             
1 48069U 21025AD  24071.38840271  .00000001  00000+0 -32219-4 0  9996
2 48069  87.8949 125.0036 0001589 109.6443 250.4857 13.13468816145137
ONEWEB-0171             
1 48070U 21025AE  24072.18667606 -.00000106  00000+0 -32597-3 0  9991
2 48070  87.8947 124.8799 0001878  99.2950 260.8392 13.13469542145055
ONEWEB-0172             
1 48071U 21025AF  24072.16604254 -.00000154  00000+0 -45714-3 0  9998
2 48071  87.8949 124.8506 0001783 100.4540 259.6790 13.13469636145949
ONEWEB-0174             
1 48072U 21025AG  24071.38681852  .00000045  00000+0  89248-4 0  9999
2 48072  87.8949 125.0199 0002158 102.8134 257.3236 13.13469620145160
ONEWEB-0175             
1 48073U 21025AH  24072.17715276 -.00000238  00000+0 -68702-3 0  9993
2 48073  87.8940 124.8570 0001723  89.9118 270.2208 13.13469495144922
ONEWEB-0177             
1 48074U 21025AJ  24071.42807224  .00000239  00000+0  61902-3 0  9990
2 48074  87.8945 125.0124 0001916 113.0821 247.0511 13.13469972145010
ONEWEB-0178             
1 48075U 21025AK  24072.20745561  .00000353  00000+0  93270-3 0  9993
2 48075  87.8952 124.8686 0001925 107.2921 252.8419 13.13469067145167
